{
  "type": "FeatureCollection",
  "features": [
    {
      "type": "Feature",
      "id": "region-b",
      "properties": { "id": "region-b" },
      "geometry": {
        "type": "Polygon",
        "coordinates": [[[1, 0], [2, 0], [2, 1], [1, 1], [1, 0]]]
      }
    },
    {
      "type": "Feature",
      "id": "region-a",
      "properties": { "id": "region-a" },
      "geometry": {
        "type": "Polygon",
        "coordinates": [[[0, 0], [1, 0], [1, 1], [0, 1], [0, 0]]]
      }
    }
  ]
}
